NORAD_CAT_ID,OBJECT_NAME,OBJECT_TYPE,EPOCH,MEAN_MOTION,ECCENTRICITY,INCLINATION,RA_OF_ASC_NODE,ARG_OF_PERICENTER,MEAN_ANOMALY,BSTAR,MEAN_MOTION_DOT,MEAN_MOTION_DDOT,TLE_LINE0,TLE_LINE1,TLE_LINE2,SEMIMAJOR_AXIS,PERIOD,APOGEE,PERIGEE,DECAYED
52625.0,STARLINK-3988,PAYLOAD,2023-06-06 22:39:04,15.08835413,0.00013,53.2163,108.5736,95.2398,264.8743,8.1488e-06,-1.58e-06,0.0,0 STARLINK-3988,1 52625U 22052AD  23157.94379750 -.00000158  00000-0  81488-5 0  9992,2 52625  53.2163 108.5736 0001300  95.2398 264.8743 15.08835413 59389,6917.894,95.438,540.659,538.86,0.0
52625.0,STARLINK-3988,PAYLOAD,2023-06-07 01:49:50,15.08838405,0.0001229,53.2162,107.9788,99.1947,260.9184,3.4537e-05,2.62e-06,0.0,0 STARLINK-3988,1 52625U 22052AD  23158.07627466  .00000262  00000-0  34537-4 0  9994,2 52625  53.2162 107.9788 0001229  99.1947 260.9184 15.08838405 59022,6917.885,95.438,540.6,538.9,0.0
52625.0,STARLINK-3988,PAYLOAD,2023-06-08 03:16:00,15.08833481,0.0001179,53.216,103.2238,91.1948,268.9179,-9.3929e-06,-4.37e-06,0.0,0 STARLINK-3988,1 52625U 22052AD  23159.13612250 -.00000437  00000-0 -93929-5 0  9994,2 52625  53.2160 103.2238 0001179  91.1948 268.9179 15.08833481 59566,6917.9,95.438,540.581,538.95,0.0
52625.0,STARLINK-3988,PAYLOAD,2023-06-08 23:56:01,15.0883939,0.0001065,53.2166,99.3574,90.8963,269.2151,7.9292e-05,9.74e-06,0.0,0 STARLINK-3988,1 52625U 22052AD  23159.99723809  .00000974  00000-0  79292-4 0  9991,2 52625  53.2166  99.3574 0001065  90.8963 269.2151 15.08839390 59690,6917.882,95.438,540.484,539.01,0.0
52625.0,STARLINK-3988,PAYLOAD,2023-06-09 12:39:06,15.08840292,0.0001099,53.2169,96.978,86.3259,273.7859,0.00011827,1.595e-05,0.0,0 STARLINK-3988,1 52625U 22052AD  23160.52715673  .00001595  00000-0  11827-3 0  9991,2 52625  53.2169  96.9780 0001099  86.3259 273.7859 15.08840292 59395,6917.879,95.438,540.505,538.984,0.0
52625.0,STARLINK-3988,PAYLOAD,2023-06-09 20:36:03,15.0882849,0.0001373,53.2173,95.4914,87.7464,272.3686,-7.2992e-07,-3e-06,0.0,0 STARLINK-3988,1 52625U 22052AD  23160.85837034 -.00000300  00000-0 -72992-6 0  9991,2 52625  53.2173  95.4914 0001373  87.7464 272.3686 15.08828490 59446,6917.916,95.438,540.73,538.831,0.0
52625.0,STARLINK-3988,PAYLOAD,2023-06-10 02:57:35,15.08831562,0.0001264,53.2175,94.3017,87.5271,272.5866,2.2826e-05,7.5e-07,0.0,0 STARLINK-3988,1 52625U 22052AD  23161.12332912  .00000075  00000-0  22826-4 0  9993,2 52625  53.2175  94.3017 0001264  87.5271 272.5866 15.08831562 59483,6917.906,95.438,540.646,538.897,0.0
52625.0,STARLINK-3988,PAYLOAD,2023-06-10 15:40:40,15.08841593,0.0001279,53.2176,91.9252,100.7177,259.3959,-7.0467e-08,-2.89e-06,0.0,0 STARLINK-3988,1 52625U 22052AD  23161.65324578 -.00000289  00000-0 -70467-7 0  9996,2 52625  53.2176  91.9252 0001279 100.7177 259.3959 15.08841593 59949,6917.876,95.437,540.625,538.856,0.0
52625.0,STARLINK-3988,PAYLOAD,2023-06-10 20:26:49,15.08845592,0.0001643,53.2172,91.032,123.1249,236.9901,-6.9724e-06,-3.99e-06,0.0,0 STARLINK-3988,1 52625U 22052AD  23161.85196288 -.00000399  00000-0 -69724-5 0  9997,2 52625  53.2172  91.0320 0001643 123.1249 236.9901 15.08845592 59598,6917.863,95.437,540.865,538.592,0.0
52625.0,STARLINK-3988,PAYLOAD,2023-06-11 01:12:58,15.08847742,0.0001218,53.2173,90.1398,99.9834,260.1296,5.6461e-05,6.11e-06,0.0,0 STARLINK-3988,1 52625U 22052AD  23162.05067999  .00000611  00000-0  56461-4 0  9994,2 52625  53.2173  90.1398 0001218  99.9834 260.1296 15.08847742 60005,6917.857,95.437,540.564,538.879,0.0
52625.0,STARLINK-3988,PAYLOAD,2023-06-11 12:20:41,15.08842102,0.0001202,53.2173,88.0589,83.6969,276.416,4.0573e-05,3.58e-06,0.0,0 STARLINK-3988,1 52625U 22052AD  23162.51436415  .00000358  00000-0  40573-4 0  9993,2 52625  53.2173  88.0589 0001202  83.6969 276.4160 15.08842102 59693,6917.874,95.437,540.57,538.907,0.0
52625.0,STARLINK-3988,PAYLOAD,2023-06-11 15:31:27,15.08831558,0.0001359,53.2172,87.4637,86.5905,273.5243,0.00010495,1.382e-05,0.0,0 STARLINK-3988,1 52625U 22052AD  23162.64684892  .00001382  00000-0  10495-3 0  9998,2 52625  53.2172  87.4637 0001359  86.5905 273.5243 15.08831558 60093,6917.906,95.438,540.711,538.831,0.0
52625.0,STARLINK-3988,PAYLOAD,2023-06-11 18:42:14,15.08821684,0.0001344,53.2171,86.868,87.8181,272.2965,0.00024103,3.548e-05,0.0,0 STARLINK-3988,1 52625U 22052AD  23162.77933215  .00003548  00000-0  24103-3 0  9995,2 52625  53.2171  86.8680 0001344  87.8181 272.2965 15.08821684 59732,6917.936,95.439,540.731,538.872,0.0
52625.0,STARLINK-3988,PAYLOAD,2023-06-12 12:11:28,15.08840318,0.0001241,53.2173,83.5972,85.0983,275.015,9.2017e-05,1.177e-05,0.0,0 STARLINK-3988,1 52625U 22052AD  23163.50796559  .00001177  00000-0  92017-4 0  9991,2 52625  53.2173  83.5972 0001241  85.0983 275.0150 15.08840318 59842,6917.879,95.438,540.603,538.886,0.0
52625.0,STARLINK-3988,PAYLOAD,2023-06-13 00:54:33,15.08844176,0.0001192,53.2177,81.2168,100.5858,259.5268,4.6847e-05,4.58e-06,0.0,0 STARLINK-3988,1 52625U 22052AD  23164.03788308  .00000458  00000-0  46847-4 0  9994,2 52625  53.2177  81.2168 0001192 100.5858 259.5268 15.08844176 59929,6917.868,95.437,540.557,538.908,0.0
52625.0,STARLINK-3988,PAYLOAD,2023-06-13 18:23:48,15.08835618,0.0001162,53.2174,77.9471,91.1789,268.9337,6.4771e-05,7.43e-06,0.0,0 STARLINK-3988,1 52625U 22052AD  23164.76652820  .00000743  00000-0  64771-4 0  9996,2 52625  53.2174  77.9471 0001162  91.1789 268.9337 15.08835618 60418,6917.894,95.438,540.563,538.955,0.0
52625.0,STARLINK-3988,PAYLOAD,2023-06-14 03:56:06,15.08839954,0.0001268,53.2167,76.1632,89.2416,270.8721,0.00013055,1.79e-05,0.0,0 STARLINK-3988,1 52625U 22052AD  23165.16396414  .00001790  00000-0  13055-3 0  9996,2 52625  53.2167  76.1632 0001268  89.2416 270.8721 15.08839954 60092,6917.881,95.438,540.623,538.868,0.0
52625.0,STARLINK-3988,PAYLOAD,2023-06-14 18:14:35,15.08836635,0.0001276,53.2171,73.4854,92.0906,268.0233,1.7264e-05,-1.3e-07,0.0,0 STARLINK-3988,1 52625U 22052AD  23165.76012978 -.00000013  00000-0  17264-4 0  9997,2 52625  53.2171  73.4854 0001276  92.0906 268.0233 15.08836635 60188,6917.891,95.438,540.638,538.873,0.0
52625.0,STARLINK-3988,PAYLOAD,2023-06-15 00:36:07,15.08840716,0.0001237,53.2174,72.2957,93.7427,266.3707,5.0056e-05,5.09e-06,0.0,0 STARLINK-3988,1 52625U 22052AD  23166.02508616  .00000509  00000-0  50056-4 0  9991,2 52625  53.2174  72.2957 0001237  93.7427 266.3707 15.08840716 60604,6917.878,95.438,540.599,538.887,0.0
52625.0,STARLINK-3988,PAYLOAD,2023-06-16 02:02:17,15.08844978,9.94e-05,53.2174,67.5395,87.555,272.5556,8.7082e-05,1.099e-05,0.0,0 STARLINK-3988,1 52625U 22052AD  23167.08492376  .00001099  00000-0  87082-4 0  9997,2 52625  53.2174  67.5395 0000994  87.5550 272.5556 15.08844978 60766,6917.865,95.437,540.418,539.043,0.0
52625.0,STARLINK-3988,PAYLOAD,2023-06-16 09:59:12,15.08847402,9.91e-05,53.2174,66.0527,85.226,274.8845,6.365e-05,7.26e-06,0.0,0 STARLINK-3988,1 52625U 22052AD  23167.41612210  .00000726  00000-0  63650-4 0  9996,2 52625  53.2174  66.0527 0000991  85.2260 274.8845 15.08847402 60432,6917.858,95.437,540.408,539.037,0.0
52625.0,STARLINK-3988,PAYLOAD,2023-06-16 16:20:45,15.08839978,9.77e-05,53.2172,64.8629,93.063,267.0474,9.4409e-05,1.215e-05,0.0,0 STARLINK-3988,1 52625U 22052AD  23167.68108638  .00001215  00000-0  94409-4 0  9999,2 52625  53.2172  64.8629 0000977  93.0630 267.0474 15.08839978 60858,6917.88,95.438,540.421,539.07,0.0
52625.0,STARLINK-3988,PAYLOAD,2023-06-16 17:56:09,15.08839952,0.0001016,53.2173,64.5654,90.0764,270.0345,7.5014e-05,9.06e-06,0.0,0 STARLINK-3988,1 52625U 22052AD  23167.74732648  .00000906  00000-0  75014-4 0  9997,2 52625  53.2173  64.5654 0001016  90.0764 270.0345 15.08839952 60486,6917.881,95.438,540.448,539.043,0.0
52625.0,STARLINK-3988,PAYLOAD,2023-06-17 01:53:03,15.08848383,0.0001063,53.2167,63.0792,92.218,267.8934,0.00015468,2.175e-05,0.0,0 STARLINK-3988,1 52625U 22052AD  23168.07851705  .00002175  00000-0  15468-3 0  9996,2 52625  53.2167  63.0792 0001063  92.2180 267.8934 15.08848383 60918,6917.855,95.437,540.455,538.984,0.0
52625.0,STARLINK-3988,PAYLOAD,2023-06-17 17:46:57,15.08820908,0.0001209,53.2175,60.1034,91.5294,268.5837,-1.4054e-05,-5.11e-06,0.0,0 STARLINK-3988,1 52625U 22052AD  23168.74094288 -.00000511  00000-0 -14054-4 0  9990,2 52625  53.2175  60.1034 0001209  91.5294 268.5837 15.08820908 61019,6917.939,95.439,540.64,538.967,0.0
52625.0,STARLINK-3988,PAYLOAD,2023-06-18 09:40:48,15.08837568,8.58e-05,53.2176,57.1315,101.3467,258.7621,-2.4261e-05,-6.74e-06,0.0,0 STARLINK-3988,1 52625U 22052AD  23169.40333658 -.00000674  00000-0 -24261-4 0  9992,2 52625  53.2176  57.1315 0000858 101.3467 258.7621 15.08837568 60739,6917.888,95.438,540.346,539.159,0.0
52625.0,STARLINK-3988,PAYLOAD,2023-06-18 19:13:06,15.08844212,9.29e-05,53.2179,55.3474,104.9037,255.2058,8.3023e-05,1.034e-05,0.0,0 STARLINK-3988,1 52625U 22052AD  23169.80077012  .00001034  00000-0  83023-4 0  9995,2 52625  53.2179  55.3474 0000929 104.9037 255.2058 15.08844212 60795,6917.868,95.437,540.375,539.09,0.0
52625.0,STARLINK-3988,PAYLOAD,2023-06-19 09:31:34,15.08844522,0.0001139,53.2179,52.6713,87.1853,272.9269,5.0985e-06,-2.07e-06,0.0,0 STARLINK-3988,1 52625U 22052AD  23170.39693146 -.00000207  00000-0  50985-5 0  9997,2 52625  53.2179  52.6713 0001139  87.1853 272.9269 15.08844522 60887,6917.867,95.437,540.52,538.944,0.0
52625.0,STARLINK-3988,PAYLOAD,2023-06-20 01:25:26,15.08839222,8.87e-05,53.218,49.6973,100.6319,259.4773,0.00024019,3.537e-05,0.0,0 STARLINK-3988,1 52625U 22052AD  23171.05933419  .00003537  00000-0  24019-3 0  9996,2 52625  53.2180  49.6973 0000887 100.6319 259.4773 15.08839222 61365,6917.883,95.438,540.361,539.134,0.0
52625.0,STARLINK-3988,PAYLOAD,2023-06-20 20:30:04,15.08843236,7.86e-05,53.2164,46.1297,96.9307,263.1775,5.7067e-05,6.21e-06,0.0,0 STARLINK-3988,1 52625U 22052AD  23171.85421420  .00000621  00000-0  57067-4 0  9999,2 52625  53.2164  46.1297 0000786  96.9307 263.1775 15.08843236 61106,6917.87,95.437,540.279,539.192,0.0
